[{"CCSDS_OMM_VERS":"2.0","COMMENT":"GENERATED VIA SPACE-TRACK.ORG API","CREATION_DATE":"2018-08-24T15:08:04","ORIGINATOR":"18 SPCS","OBJECT_NAME":"UPSAT","OBJECT_ID":"1998-067LX","CENTER_NAME":"EARTH","REF_FRAME":"TEME","TIME_SYSTEM":"UTC","MEAN_ELEMENT_THEORY":"SGP4","EPOCH":"2018-08-24T12:46:26.667840","MEAN_MOTION":"15.82609067","ECCENTRICITY":"0.00007690","INCLINATION":"51.6312","RA_OF_ASC_NODE":"356.9882","ARG_OF_PERICENTER":"327.8113","MEAN_ANOMALY":"32.2843","EPHEMERIS_TYPE":"0","CLASSIFICATION_TYPE":"U","NORAD_CAT_ID":"42716","ELEMENT_SET_NO":"999","REV_AT_EPOCH":"7257","BSTAR":"0.00025691000000","MEAN_MOTION_DOT":"0.00054699","MEAN_MOTION_DDOT":"0.0000000000000","SEMIMAJOR_AXIS":"6701.202","PERIOD":"90.988","APOAPSIS":"323.582","PERIAPSIS":"322.552","OBJECT_TYPE":"PAYLOAD","RCS_SIZE":"SMALL","COUNTRY_CODE":"GREC","LAUNCH_DATE":"1998-11-20","SITE":"TTMTR","DECAY_DATE":null,"FILE":"2323260","GP_ID":"122671530","TLE_LINE0":"0 UPSAT","TLE_LINE1":"1 42716U 98067LX  18236.53225310  .00054699  00000-0  25691-3 0  9990","TLE_LINE2":"2 42716  51.6312 356.9882 0000769 327.8113  32.2843 15.82609067 72575"},{"CCSDS_OMM_VERS":"2.0","COMMENT":"GENERATED VIA SPACE-TRACK.ORG API","CREATION_DATE":"2018-08-24T23:02:20","ORIGINATOR":"18 SPCS","OBJECT_NAME":"UPSAT","OBJECT_ID":"1998-067LX","CENTER_NAME":"EARTH","REF_FRAME":"TEME","TIME_SYSTEM":"UTC","MEAN_ELEMENT_THEORY":"SGP4","EPOCH":"2018-08-24T18:50:09.037248","MEAN_MOTION":"15.82637052","ECCENTRICITY":"0.00007550","INCLINATION":"51.6313","RA_OF_ASC_NODE":"355.6742","ARG_OF_PERICENTER":"328.6429","MEAN_ANOMALY":"31.4529","EPHEMERIS_TYPE":"0","CLASSIFICATION_TYPE":"U","NORAD_CAT_ID":"42716","ELEMENT_SET_NO":"999","REV_AT_EPOCH":"7261","BSTAR":"0.00026504000000","MEAN_MOTION_DOT":"0.00056540","MEAN_MOTION_DDOT":"0.0000000000000","SEMIMAJOR_AXIS":"6701.123","PERIOD":"90.987","APOAPSIS":"323.494","PERIAPSIS":"322.482","OBJECT_TYPE":"PAYLOAD","RCS_SIZE":"SMALL","COUNTRY_CODE":"GREC","LAUNCH_DATE":"1998-11-20","SITE":"TTMTR","DECAY_DATE":null,"FILE":"2323404","GP_ID":"122682124","TLE_LINE0":"0 UPSAT","TLE_LINE1":"1 42716U 98067LX  18236.78482682  .00056540  00000-0  26504-3 0  9995","TLE_LINE2":"2 42716  51.6313 355.6742 0000755 328.6429  31.4529 15.82637052 72613"},{"CCSDS_OMM_VERS":"2.0","COMMENT":"GENERATED VIA SPACE-TRACK.ORG API","CREATION_DATE":"2018-08-25T07:55:48","ORIGINATOR":"18 SPCS","OBJECT_NAME":"UPSAT","OBJECT_ID":"1998-067LX","CENTER_NAME":"EARTH","REF_FRAME":"TEME","TIME_SYSTEM":"UTC","MEAN_ELEMENT_THEORY":"SGP4","EPOCH":"2018-08-25T03:55:41.755008","MEAN_MOTION":"15.82685542","ECCENTRICITY":"0.00008870","INCLINATION":"51.6313","RA_OF_ASC_NODE":"353.7042","ARG_OF_PERICENTER":"334.2723","MEAN_ANOMALY":"25.8236","EPHEMERIS_TYPE":"0","CLASSIFICATION_TYPE":"U","NORAD_CAT_ID":"42716","ELEMENT_SET_NO":"999","REV_AT_EPOCH":"7267","BSTAR":"0.00032338000000","MEAN_MOTION_DOT":"0.00069407","MEAN_MOTION_DDOT":"0.0000000000000","SEMIMAJOR_AXIS":"6700.986","PERIOD":"90.984","APOAPSIS":"323.446","PERIAPSIS":"322.257","OBJECT_TYPE":"PAYLOAD","RCS_SIZE":"SMALL","COUNTRY_CODE":"GREC","LAUNCH_DATE":"1998-11-20","SITE":"TTMTR","DECAY_DATE":null,"FILE":"2323579","GP_ID":"122686494","TLE_LINE0":"0 UPSAT","TLE_LINE1":"1 42716U 98067LX  18237.16367772  .00069407  00000-0  32338-3 0  9998","TLE_LINE2":"2 42716  51.6313 353.7042 0000887 334.2723  25.8236 15.82685542 72676"},{"CCSDS_OMM_VERS":"2.0","COMMENT":"GENERATED VIA SPACE-TRACK.ORG API","CREATION_DATE":"2018-08-25T15:18:01","ORIGINATOR":"18 SPCS","OBJECT_NAME":"UPSAT","OBJECT_ID":"1998-067LX","CENTER_NAME":"EARTH","REF_FRAME":"TEME","TIME_SYSTEM":"UTC","MEAN_ELEMENT_THEORY":"SGP4","EPOCH":"2018-08-25T13:01:13.443744","MEAN_MOTION":"15.82732943","ECCENTRICITY":"0.00009390","INCLINATION":"51.6314","RA_OF_ASC_NODE":"351.7329","ARG_OF_PERICENTER":"334.1779","MEAN_ANOMALY":"25.9177","EPHEMERIS_TYPE":"0","CLASSIFICATION_TYPE":"U","NORAD_CAT_ID":"42716","ELEMENT_SET_NO":"999","REV_AT_EPOCH":"7273","BSTAR":"0.00027903000000","MEAN_MOTION_DOT":"0.00059857","MEAN_MOTION_DDOT":"0.0000000000000","SEMIMAJOR_AXIS":"6700.852","PERIOD":"90.981","APOAPSIS":"323.347","PERIAPSIS":"322.088","OBJECT_TYPE":"PAYLOAD","RCS_SIZE":"SMALL","COUNTRY_CODE":"GREC","LAUNCH_DATE":"1998-11-20","SITE":"TTMTR","DECAY_DATE":null,"FILE":"2323737","GP_ID":"122690350","TLE_LINE0":"0 UPSAT","TLE_LINE1":"1 42716U 98067LX  18237.54251671  .00059857  00000-0  27903-3 0  9990","TLE_LINE2":"2 42716  51.6314 351.7329 0000939 334.1779  25.9177 15.82732943 72731"},{"CCSDS_OMM_VERS":"2.0","COMMENT":"GENERATED VIA SPACE-TRACK.ORG API","CREATION_DATE":"2018-08-25T23:01:26","ORIGINATOR":"18 SPCS","OBJECT_NAME":"UPSAT","OBJECT_ID":"1998-067LX","CENTER_NAME":"EARTH","REF_FRAME":"TEME","TIME_SYSTEM":"UTC","MEAN_ELEMENT_THEORY":"SGP4","EPOCH":"2018-08-25T14:32:08.639520","MEAN_MOTION":"15.82739855","ECCENTRICITY":"0.00009370","INCLINATION":"51.6314","RA_OF_ASC_NODE":"351.4043","ARG_OF_PERICENTER":"334.0333","MEAN_ANOMALY":"26.0623","EPHEMERIS_TYPE":"0","CLASSIFICATION_TYPE":"U","NORAD_CAT_ID":"42716","ELEMENT_SET_NO":"999","REV_AT_EPOCH":"7274","BSTAR":"0.00028062000000","MEAN_MOTION_DOT":"0.00060224","MEAN_MOTION_DDOT":"0.0000000000000","SEMIMAJOR_AXIS":"6700.833","PERIOD":"90.981","APOAPSIS":"323.326","PERIAPSIS":"322.070","OBJECT_TYPE":"PAYLOAD","RCS_SIZE":"SMALL","COUNTRY_CODE":"GREC","LAUNCH_DATE":"1998-11-20","SITE":"TTMTR","DECAY_DATE":null,"FILE":"2323896","GP_ID":"122711817","TLE_LINE0":"0 UPSAT","TLE_LINE1":"1 42716U 98067LX  18237.60565555 +.00060224 +00000-0 +28062-3 0  9993","TLE_LINE2":"2 42716 051.6314 351.4043 0000937 334.0333 026.0623 15.82739855072742"},{"CCSDS_OMM_VERS":"2.0","COMMENT":"GENERATED VIA SPACE-TRACK.ORG API","CREATION_DATE":"2018-08-25T22:48:42","ORIGINATOR":"18 SPCS","OBJECT_NAME":"UPSAT","OBJECT_ID":"1998-067LX","CENTER_NAME":"EARTH","REF_FRAME":"TEME","TIME_SYSTEM":"UTC","MEAN_ELEMENT_THEORY":"SGP4","EPOCH":"2018-08-25T17:33:58.967136","MEAN_MOTION":"15.82754649","ECCENTRICITY":"0.00009470","INCLINATION":"51.6315","RA_OF_ASC_NODE":"350.7474","ARG_OF_PERICENTER":"334.5678","MEAN_ANOMALY":"25.5278","EPHEMERIS_TYPE":"0","CLASSIFICATION_TYPE":"U","NORAD_CAT_ID":"42716","ELEMENT_SET_NO":"999","REV_AT_EPOCH":"7276","BSTAR":"0.00027751000000","MEAN_MOTION_DOT":"0.00059586","MEAN_MOTION_DDOT":"0.0000000000000","SEMIMAJOR_AXIS":"6700.791","PERIOD":"90.980","APOAPSIS":"323.291","PERIAPSIS":"322.022","OBJECT_TYPE":"PAYLOAD","RCS_SIZE":"SMALL","COUNTRY_CODE":"GREC","LAUNCH_DATE":"1998-11-20","SITE":"TTMTR","DECAY_DATE":null,"FILE":"2323878","GP_ID":"122703867","TLE_LINE0":"0 UPSAT","TLE_LINE1":"1 42716U 98067LX  18237.73193249  .00059586  00000-0  27751-3 0  9997","TLE_LINE2":"2 42716  51.6315 350.7474 0000947 334.5678  25.5278 15.82754649 72761"},{"CCSDS_OMM_VERS":"2.0","COMMENT":"GENERATED VIA SPACE-TRACK.ORG API","CREATION_DATE":"2018-08-26T18:24:47","ORIGINATOR":"18 SPCS","OBJECT_NAME":"UPSAT","OBJECT_ID":"1998-067LX","CENTER_NAME":"EARTH","REF_FRAME":"TEME","TIME_SYSTEM":"UTC","MEAN_ELEMENT_THEORY":"SGP4","EPOCH":"2018-08-25T20:35:49.187616","MEAN_MOTION":"15.82771303","ECCENTRICITY":"0.00010190","INCLINATION":"51.6316","RA_OF_ASC_NODE":"350.0907","ARG_OF_PERICENTER":"338.4475","MEAN_ANOMALY":"21.6485","EPHEMERIS_TYPE":"0","CLASSIFICATION_TYPE":"U","NORAD_CAT_ID":"42716","ELEMENT_SET_NO":"999","REV_AT_EPOCH":"7278","BSTAR":"0.00029096000000","MEAN_MOTION_DOT":"0.00062580","MEAN_MOTION_DDOT":"0.0000000000000","SEMIMAJOR_AXIS":"6700.744","PERIOD":"90.979","APOAPSIS":"323.292","PERIAPSIS":"321.926","OBJECT_TYPE":"PAYLOAD","RCS_SIZE":"SMALL","COUNTRY_CODE":"GREC","LAUNCH_DATE":"1998-11-20","SITE":"TTMTR","DECAY_DATE":null,"FILE":"2324176","GP_ID":"122725052","TLE_LINE0":"0 UPSAT","TLE_LINE1":"1 42716U 98067LX  18237.85820819 +.00062580 +00000-0 +29096-3 0  9992","TLE_LINE2":"2 42716 051.6316 350.0907 0001019 338.4475 021.6485 15.82771303072780"},{"CCSDS_OMM_VERS":"2.0","COMMENT":"GENERATED VIA SPACE-TRACK.ORG API","CREATION_DATE":"2018-08-26T06:57:45","ORIGINATOR":"18 SPCS","OBJECT_NAME":"UPSAT","OBJECT_ID":"1998-067LX","CENTER_NAME":"EARTH","REF_FRAME":"TEME","TIME_SYSTEM":"UTC","MEAN_ELEMENT_THEORY":"SGP4","EPOCH":"2018-08-26T04:10:23.975040","MEAN_MOTION":"15.82828256","ECCENTRICITY":"0.00011720","INCLINATION":"51.6316","RA_OF_ASC_NODE":"348.4489","ARG_OF_PERICENTER":"342.2931","MEAN_ANOMALY":"17.8030","EPHEMERIS_TYPE":"0","CLASSIFICATION_TYPE":"U","NORAD_CAT_ID":"42716","ELEMENT_SET_NO":"999","REV_AT_EPOCH":"7283","BSTAR":"0.00037527000000","MEAN_MOTION_DOT":"0.00081319","MEAN_MOTION_DDOT":"0.0000000000000","SEMIMAJOR_AXIS":"6700.583","PERIOD":"90.976","APOAPSIS":"323.234","PERIAPSIS":"321.663","OBJECT_TYPE":"PAYLOAD","RCS_SIZE":"SMALL","COUNTRY_CODE":"GREC","LAUNCH_DATE":"1998-11-20","SITE":"TTMTR","DECAY_DATE":null,"FILE":"2323976","GP_ID":"122713894","TLE_LINE0":"0 UPSAT","TLE_LINE1":"1 42716U 98067LX  18238.17388860  .00081319  00000-0  37527-3 0  9992","TLE_LINE2":"2 42716  51.6316 348.4489 0001172 342.2931  17.8030 15.82828256 72835"}]